YAOGAN-43 01G           
1 60464U 24148G   26068.44348481  .00010133  00000+0  35873-3 0  9993
2 60464  35.0006  62.0013 0007382 306.3543  53.6492 15.28332833 87004
STARLINK-34332          
1 64213U 25117L   26068.24721156  .00018204  00000+0  62533-3 0  9998
2 64213  53.1624  41.9617 0001198  71.5900 288.5231 15.30195803 44482
